OBJECT_NAME,OBJECT_ID,EPOCH,MEAN_MOTION,ECCENTRICITY,INCLINATION,RA_OF_ASC_NODE,ARG_OF_PERICENTER,MEAN_ANOMALY,EPHEMERIS_TYPE,CLASSIFICATION_TYPE,NORAD_CAT_ID,ELEMENT_SET_NO,REV_AT_EPOCH,BSTAR,MEAN_MOTION_DOT,MEAN_MOTION_DDOT
GONETS-M 17,2020-068A,2026-05-11T21:42:58.292640,12.42871548,.00232184,82.5018,10.0753,112.8097,247.5438,0,U,46486,999,25465,-.81234905E-4,-.1E-7,0
GONETS-M 18,2020-068B,2026-05-11T22:46:32.958912,12.42870588,.00205681,82.4972,9.1796,108.9668,251.3643,0,U,46487,999,25464,-.43914462E-3,-.51E-6,0
GONETS-M 19,2020-068C,2026-05-11T22:11:56.066208,12.42890742,.00141112,82.4997,9.6382,122.5617,237.6827,0,U,46488,999,25474,-.30462603E-3,-.32E-6,0
DEKART,2020-068H,2026-05-12T00:09:57.919968,15.36500620,.00106731,97.8757,138.7111,61.3596,298.8719,0,U,46493,999,31021,.2283692E-3,.8058E-4,0
NORBI,2020-068J,2026-05-11T22:46:59.812896,15.46901573,.00076912,97.8653,144.7657,46.0983,314.0899,0,U,46494,999,31060,.29758179E-3,.14896E-3,0
SALSAT,2020-068K,2026-05-11T21:38:31.421184,15.29255780,.00115641,97.8861,132.7745,74.1215,286.1297,0,U,46495,999,30981,.1806229E-3,.5051E-4,0
ICEYE-X6,2020-068M,2026-05-11T22:36:44.690688,15.04321202,.00064525,98.0964,123.8902,200.7874,159.3090,0,U,46497,999,30778,.10095463E-3,.1339E-4,0
NETSAT-4,2020-068U,2026-05-11T05:30:48.955392,15.42631433,.00076761,97.8621,136.5388,95.0170,265.1952,0,U,46504,999,31007,.27495893E-3,.11889E-3,0
NETSAT-3,2020-068V,2026-05-11T22:06:21.958272,15.41417310,.00075216,97.8668,135.5486,105.8095,254.3981,0,U,46505,999,31009,.27657427E-3,.11482E-3,0
NETSAT-1,2020-068W,2026-05-11T11:30:39.807360,15.33739661,.00067007,97.8754,129.8268,125.9205,234.2659,0,U,46506,999,30967,.24889813E-3,.8038E-4,0
NETSAT-2,2020-068X,2026-05-11T18:28:43.000896,15.44440259,.00061935,97.8635,136.8936,114.1091,246.0805,0,U,46507,999,31011,.31480897E-3,.14483E-3,0
TIANQI-6,2020-076D,2026-05-11T18:26:35.265408,15.06944584,.00105193,34.9993,271.9355,211.7302,148.2774,0,U,46810,999,30308,.15495412E-3,.2338E-4,0
KSM1-C,2020-081B,2026-05-11T18:58:47.217792,15.26145143,.00029342,36.8940,283.5344,267.2076,92.8337,0,U,46906,999,30360,.21859705E-3,.5684E-4,0
KSM1-D,2020-081C,2026-05-11T19:27:40.081248,15.24216052,.00049581,36.8969,291.7329,303.7175,56.3100,0,U,46907,999,30354,.2112195E-3,.5176E-4,0
KSM1-A,2020-081H,2026-05-11T18:37:09.375744,15.25402132,.00029385,36.8965,285.7472,357.3501,2.7232,0,U,46912,999,30361,.20973049E-3,.5327E-4,0
R2,2020-081J,2026-05-11T17:16:12.782496,15.24910302,.00076894,36.8978,285.8954,327.1844,32.8426,0,U,46913,999,30641,.20012905E-3,.5005E-4,0
KSM1-B,2020-081K,2026-05-11T19:25:33.398976,15.24014957,.00063405,36.9022,292.2610,324.2798,35.7526,0,U,46914,999,30663,.19719999E-3,.4797E-4,0
GONETS-M 20,2020-091A,2026-05-11T22:38:36.622752,12.42892746,.00199644,82.5043,324.9735,259.4717,100.4114,0,U,47227,999,24657,.28249565E-3,.49E-6,0
GONETS-M 21,2020-091B,2026-05-11T22:00:42.286176,12.42884562,.00138029,82.4965,323.7191,274.6897,85.2606,0,U,47228,999,24656,.50057923E-4,.17E-6,0
GONETS-M 22,2020-091C,2026-05-11T23:18:05.469696,12.42890614,.00208404,82.5024,324.5674,254.4739,105.4040,0,U,47229,999,24652,-.30944595E-3,-.33E-6,0
CUBEL,2021-006AM,2026-05-11T09:38:52.151136,15.40416335,.00050977,97.2365,182.3538,315.3760,44.7076,0,U,47448,999,29409,.13596354E-3,.5417E-4,0
ARKTIKA-M 1,2021-016A,2026-05-09T02:45:45.668160,2.00634688,.72733431,63.2307,63.2755,269.7576,14.8669,0,U,47719,999,3800,0,-.78E-6,0
STARLINK-2342,2021-021Z,2026-05-11T20:04:01.919712,15.54360628,.00034155,53.1573,326.0131,202.9464,157.1395,0,U,47883,999,28621,.11198515E-2,.74898E-3,0
GRUS-1B,2021-022C,2026-05-11T22:17:01.816800,14.98893682,.0017209,97.5425,16.3121,81.4398,278.8774,0,U,47934,999,28046,.3054658E-4,.313E-5,0
UNISAT-7,2021-022P,2026-05-11T15:22:45.214176,15.39491183,.00086213,97.3919,36.2075,192.1305,167.9735,0,U,47945,999,28423,.21785018E-3,.8473E-4,0
GLOBAL-9,2021-023G,2026-05-11T06:57:26.002656,15.45123725,.00022295,44.9806,97.6678,87.6809,272.4336,0,U,47971,999,28923,.27696559E-3,.1307E-3,0
AII-BRAVO,2021-034C,2026-05-11T17:53:32.901216,15.03194421,.00070321,97.5658,187.4904,48.4471,311.7357,0,U,48270,999,27414,.18417327E-3,.2432E-4,0
