GONETS-M 17             
1 46486U 20068A   26131.90484135 -.00000001  00000+0 -81235-4 0  9996
2 46486  82.5018  10.0753 0023218 112.8097 247.5438 12.42871548254651
GONETS-M 18             
1 46487U 20068B   26131.94899258 -.00000051  00000+0 -43914-3 0  9993
2 46487  82.4972   9.1796 0020568 108.9668 251.3643 12.42870588254644
GONETS-M 19             
1 46488U 20068C   26131.92495447 -.00000032  00000+0 -30463-3 0  9998
2 46488  82.4997   9.6382 0014111 122.5617 237.6827 12.42890742254747
DEKART                  
1 46493U 20068H   26132.00692037  .00008058  00000+0  22837-3 0  9998
2 46493  97.8757 138.7111 0010673  61.3596 298.8719 15.36500620310219
NORBI                   
1 46494U 20068J   26131.94930339  .00014896  00000+0  29758-3 0  9997
2 46494  97.8653 144.7657 0007691  46.0983 314.0899 15.46901573310609
SALSAT                  
1 46495U 20068K   26131.90175256  .00005051  00000+0  18062-3 0  9992
2 46495  97.8861 132.7745 0011564  74.1215 286.1297 15.29255780309815
ICEYE-X6                
1 46497U 20068M   26131.94218392  .00001339  00000+0  10095-3 0  9990
2 46497  98.0964 123.8902 0006452 200.7874 159.3090 15.04321202307780
NETSAT-4                
1 46504U 20068U   26131.22973328  .00011889  00000+0  27496-3 0  9991
2 46504  97.8621 136.5388 0007676  95.0170 265.1952 15.42631433310079
NETSAT-3                
1 46505U 20068V   26131.92108748  .00011482  00000+0  27657-3 0  9993
2 46505  97.8668 135.5486 0007521 105.8095 254.3981 15.41417310310093
NETSAT-1                
1 46506U 20068W   26131.47962740  .00008038  00000+0  24890-3 0  9993
2 46506  97.8754 129.8268 0006700 125.9205 234.2659 15.33739661309676
NETSAT-2                
1 46507U 20068X   26131.76994214  .00014483  00000+0  31481-3 0  9992
2 46507  97.8635 136.8936 0006193 114.1091 246.0805 15.44440259310113
TIANQI-6                
1 46810U 20076D   26131.76846372  .00002338  00000+0  15495-3 0  9992
2 46810  34.9993 271.9355 0010519 211.7302 148.2774 15.06944584303085
KSM1-C                  
1 46906U 20081B   26131.79082428  .00005684  00000+0  21860-3 0  9991
2 46906  36.8940 283.5344 0002934 267.2076  92.8337 15.26145143303600
KSM1-D                  
1 46907U 20081C   26131.81088057  .00005176  00000+0  21122-3 0  9996
2 46907  36.8969 291.7329 0004958 303.7175  56.3100 15.24216052303542
KSM1-A                  
1 46912U 20081H   26131.77580296  .00005327  00000+0  20973-3 0  9990
2 46912  36.8965 285.7472 0002938 357.3501   2.7232 15.25402132303616
R2                      
1 46913U 20081J   26131.71959239  .00005005  00000+0  20013-3 0  9990
2 46913  36.8978 285.8954 0007689 327.1844  32.8426 15.24910302306412
KSM1-B                  
1 46914U 20081K   26131.80941434  .00004797  00000+0  19720-3 0  9999
2 46914  36.9022 292.2610 0006340 324.2798  35.7526 15.24014957306632
GONETS-M 20             
1 47227U 20091A   26131.94347943  .00000049  00000+0  28250-3 0  9992
2 47227  82.5043 324.9735 0019964 259.4717 100.4114 12.42892746246573
GONETS-M 21             
1 47228U 20091B   26131.91715609  .00000017  00000+0  50058-4 0  9995
2 47228  82.4965 323.7191 0013802 274.6897  85.2606 12.42884562246564
GONETS-M 22             
1 47229U 20091C   26131.97089664 -.00000033  00000+0 -30945-3 0  9999
2 47229  82.5024 324.5674 0020840 254.4739 105.4040 12.42890614246526
CUBEL                   
1 47448U 21006AM  26131.40199249  .00005417  00000+0  13596-3 0  9990
2 47448  97.2365 182.3538 0005097 315.3760  44.7076 15.40416335294091
ARKTIKA-M 1             
1 47719U 21016A   26129.11511190 -.00000078  00000+0  00000+0 0  9991
2 47719  63.2307  63.2755 7273343 269.7576  14.8669  2.00634688 38002
STARLINK-2342           
1 47883U 21021Z   26131.83613333  .00074898  00000+0  11199-2 0  9997
2 47883  53.1573 326.0131 0003415 202.9464 157.1395 15.54360628286212
GRUS-1B                 
1 47934U 21022C   26131.92849325  .00000313  00000+0  30547-4 0  9998
2 47934  97.5425  16.3121 0017209  81.4398 278.8774 14.98893682280468
UNISAT-7                
1 47945U 21022P   26131.64080109  .00008473  00000+0  21785-3 0  9994
2 47945  97.3919  36.2075 0008621 192.1305 167.9735 15.39491183284231
GLOBAL-9                
1 47971U 21023G   26131.28988429  .00013070  00000+0  27697-3 0  9993
2 47971  44.9806  97.6678 0002229  87.6809 272.4336 15.45123725289233
AII-BRAVO               
1 48270U 21034C   26131.74551969  .00002432  00000+0  18417-3 0  9994
2 48270  97.5658 187.4904 0007032  48.4471 311.7357 15.03194421274141
